     2.10           NAVIGATION DATA                         RINEX VERSION / TYPE
GR10 V4.02          ASI_e-geos          2017 02 22 23:59    PGM / RUN BY / DATE 
   9.3132D-09  0.0000D+00 -5.9605D-08  0.0000D+00           ION ALPHA           
   9.0112D+04  0.0000D+00 -1.9661D+05  0.0000D+00           ION BETA            
    0.000000000000D+00-2.664535259100D-15   589824     1937 DELTA-UTC: A0,A1,T,W
    18                                                      LEAP SECONDS        
                                                            END OF HEADER       
31 17 02 23 06 00  0.0 2.173795364797D-04-2.273736754432D-12 0.000000000000D+00
    8.500000000000D+01 2.178125000000D+01 4.081598586393D-09 1.406751683208D+00
    1.264736056328D-06 8.540386334062D-03 1.042149960995D-05 5.153657075882D+03
    3.672000000000D+05 5.587935447693D-08 2.405149789994D+00 1.303851604462D-07
    9.680619242134D-01 1.803750000000D+02-2.807291313009D-01-7.697463487394D-09
   -4.343038047824D-10 1.000000000000D+00 1.937000000000D+03 0.000000000000D+00
    2.000000000000D+00 0.000000000000D+00-1.350417733192D-08 8.500000000000D+01
    3.600000000000D+05 0.000000000000D+00
11 17 02 23 05 59 44.0-6.713639013469D-04-1.932676241267D-12 0.000000000000D+00
    3.800000000000D+01-1.217812500000D+02 5.973463104430D-09 1.647150114597D+00
   -6.614252924919D-06 1.662744674832D-02 4.947185516357D-06 5.153704816818D+03
    3.671840000000D+05 1.490116119385D-07-1.159178019000D+00-4.079192876816D-07
    8.996004141396D-01 2.518125000000D+02 1.621282034939D+00-8.830367820264D-09
   -2.189376910622D-10 1.000000000000D+00 1.937000000000D+03 0.000000000000D+00
    2.000000000000D+00 0.000000000000D+00-1.210719347000D-08 3.800000000000D+01
    3.600000000000D+05 0.000000000000D+00
 1 17 02 23 06 00  0.0 4.988024011254D-05 9.094947017729D-13 0.000000000000D+00
    6.000000000000D+01-1.122812500000D+02 4.234104938895D-09 2.248350204308D+00
   -5.770474672318D-06 6.244442891330D-03 9.344890713692D-06 5.153701189041D+03
    3.672000000000D+05-1.564621925354D-07-7.631124716804D-01-3.725290298462D-08
    9.667162034273D-01 2.030625000000D+02 5.395613691596D-01-7.876756669960D-09
   -1.221479450951D-10 1.000000000000D+00 1.937000000000D+03 0.000000000000D+00
    2.000000000000D+00 0.000000000000D+00 5.122274160385D-09 6.000000000000D+01
    3.600000000000D+05 0.000000000000D+00
23 17 02 23 06 00  0.0-2.060425467789D-04-9.094947017729D-13 0.000000000000D+00
    8.300000000000D+01-1.031250000000D+00 5.183073038654D-09 3.129677754909D+00
   -1.806765794754D-07 1.127402717248D-02 5.343928933144D-06 5.153783733368D+03
    3.672000000000D+05-1.303851604462D-08 1.318348436058D+00-1.210719347000D-07
    9.443938290394D-01 2.677812500000D+02-2.498777619386D+00-8.189984002850D-09
   -8.714648714384D-11 1.000000000000D+00 1.937000000000D+03 0.000000000000D+00
    2.000000000000D+00 0.000000000000D+00-2.002343535423D-08 8.300000000000D+01
    3.600000000000D+05 0.000000000000D+00
 3 17 02 23 06 00  0.0-1.075267791748D-04-1.136868377216D-13 0.000000000000D+00
    4.600000000000D+01 8.031250000000D+00 4.515188075707D-09 1.327179942303D+00
    3.855675458908D-07 4.782777978107D-04 9.592622518539D-06 5.153795663834D+03
    3.672000000000D+05 3.911554813385D-08 2.786552942429D-01 2.607703208923D-08
    9.600960222073D-01 1.922187500000D+02 3.914690309193D-01-7.938187800242D-09
    4.146601294017D-10 1.000000000000D+00 1.937000000000D+03 0.000000000000D+00
    2.000000000000D+00 0.000000000000D+00 1.862645149231D-09 4.600000000000D+01
    3.600000000000D+05 0.000000000000D+00
19 17 02 23 06 00  0.0-5.123452283442D-04 1.023181539495D-12 0.000000000000D+00
    6.400000000000D+01-3.140625000000D+01 4.585548149344D-09 1.197591547215D+00
   -1.601874828339D-06 1.017432520166D-02 2.589076757431D-06 5.153649452209D+03
    3.672000000000D+05-1.192092895508D-07-1.721583066091D+00 8.009374141693D-08
    9.760090087042D-01 3.422187500000D+02 9.212290786260D-01-8.417850637267D-09
   -1.457203555520D-10 1.000000000000D+00 1.937000000000D+03 0.000000000000D+00
    2.000000000000D+00 0.000000000000D+00-1.536682248116D-08 6.400000000000D+01
    3.606900000000D+05 0.000000000000D+00
 9 17 02 23 06 00  0.0 3.091995604336D-04 7.617018127348D-12 0.000000000000D+00
    8.000000000000D+01 1.406250000000D+00 5.077711507066D-09-1.727200130235D+00
    2.048909664154D-08 9.200532222167D-04 5.282461643219D-06 5.153676473618D+03
    3.672000000000D+05 2.048909664154D-08 1.315662626721D+00 1.303851604462D-08
    9.535083616563D-01 2.739062500000D+02 1.768499037609D+00-8.319632260364D-09
   -1.117903708034D-10 1.000000000000D+00 1.937000000000D+03 0.000000000000D+00
    2.000000000000D+00 0.000000000000D+00 1.396983861923D-09 8.000000000000D+01
    3.633900000000D+05 0.000000000000D+00
 6 17 02 23 06 00  0.0 3.161770291626D-04 5.002220859751D-12 0.000000000000D+00
    8.000000000000D+01-1.062500000000D+02 4.323037214709D-09 2.547135991558D+00
   -5.332753062248D-06 6.933530094102D-04 8.666887879372D-06 5.153628345490D+03
    3.672000000000D+05 4.097819328308D-08-7.714978215581D-01-3.725290298462D-08
    9.664978482748D-01 2.135625000000D+02-1.342203626751D+00-7.944973797192D-09
   -1.864363372504D-10 1.000000000000D+00 1.937000000000D+03 0.000000000000D+00
    2.000000000000D+00 0.000000000000D+00 4.190951585770D-09 8.000000000000D+01
    3.646800000000D+05 0.000000000000D+00
19 17 02 23 08 00  0.0-5.123377777636D-04 1.023181539495D-12 0.000000000000D+00
    7.700000000000D+01-3.987500000000D+01 4.481258090958D-09 2.247624782731D+00
   -2.259388566017D-06 1.017387758475D-02 1.998618245125D-06 5.153652641296D+03
    3.744000000000D+05-5.960464477539D-08-1.721643611881D+00-1.471489667892D-07
    9.760091491444D-01 3.513437500000D+02 9.213913308702D-01-8.208913362763D-09
   -6.143113028173D-11 1.000000000000D+00 1.937000000000D+03 0.000000000000D+00
    2.000000000000D+00 0.000000000000D+00-1.536682248116D-08 7.700000000000D+01
    3.672000000000D+05 0.000000000000D+00
17 17 02 23 08 00  0.0-1.902407966554D-04 1.250555214938D-12 0.000000000000D+00
    6.500000000000D+01-2.631250000000D+01 4.588762568951D-09-9.137704010393D-01
   -1.111999154091D-06 1.168121304363D-02 2.354383468628D-06 5.153582689285D+03
    3.744000000000D+05-1.080334186554D-07-1.769736126488D+00 2.514570951462D-07
    9.788016359312D-01 3.465312500000D+02-1.861505258480D+00-8.472138612865D-09
   -2.142946405177D-11 1.000000000000D+00 1.937000000000D+03 0.000000000000D+00
    2.000000000000D+00 0.000000000000D+00-1.071020960808D-08 6.500000000000D+01
    3.672000000000D+05 0.000000000000D+00
 9 17 02 23 08 00  0.0 3.092540428042D-04 7.617018127348D-12 0.000000000000D+00
    8.500000000000D+01 4.687500000000D-01 5.061996566761D-09-6.772407764710D-01
   -5.215406417847D-08 9.200306376442D-04 5.332753062248D-06 5.153676094055D+03
    3.744000000000D+05-9.313225746155D-09 1.315602963070D+00 5.029141902924D-08
    9.535076111793D-01 2.725937500000D+02 1.768722991349D+00-8.287845222020D-09
   -1.346484657919D-10 1.000000000000D+00 1.937000000000D+03 0.000000000000D+00
    2.000000000000D+00 0.000000000000D+00 1.396983861923D-09 8.500000000000D+01
    3.672000000000D+05 0.000000000000D+00
22 17 02 23 08 00  0.0 9.284261614084D-05-1.159605744760D-11 0.000000000000D+00
    8.200000000000D+01 2.084375000000D+01 5.375581057385D-09-1.377240801482D+00
    1.143664121628D-06 7.434792467393D-03 9.480863809586D-06 5.153581214905D+03
    3.744000000000D+05 4.656612873077D-08 2.361217834886D-01 2.365559339523D-07
    9.238501348206D-01 1.744687500000D+02-1.801105135075D+00-8.367848554480D-09
    4.089456056545D-10 1.000000000000D+00 1.937000000000D+03 0.000000000000D+00
    2.000000000000D+00 0.000000000000D+00-1.769512891769D-08 8.200000000000D+01
    3.672000000000D+05 0.000000000000D+00
31 17 02 23 08 00  0.0 2.173627726734D-04-2.273736754432D-12 0.000000000000D+00
    8.600000000000D+01 1.765625000000D+01 4.128743407307D-09 2.456958330108D+00
    1.005828380585D-06 8.540137787350D-03 1.058541238308D-05 5.153656976700D+03
    3.744000000000D+05-1.862645149231D-08 2.405094526801D+00 8.940696716309D-08
    9.680586428882D-01 1.816562500000D+02-2.807473402422D-01-7.675676865608D-09
   -4.535903224290D-10 1.000000000000D+00 1.937000000000D+03 0.000000000000D+00
    2.000000000000D+00 0.000000000000D+00-1.350417733192D-08 8.600000000000D+01
    3.672000000000D+05 0.000000000000D+00
11 17 02 23 08 00  0.0-6.713778711855D-04-1.932676241267D-12 0.000000000000D+00
    3.900000000000D+01-1.238437500000D+02 5.925603968047D-09 2.699699229812D+00
   -6.394460797310D-06 1.662734372076D-02 5.187466740608D-06 5.153703853607D+03
    3.744000000000D+05 2.402812242508D-07-1.159239762921D+00-9.313225746155D-08
    8.995993008589D-01 2.436562500000D+02 1.621239123163D+00-8.592500769289D-09
   -3.003696544589D-10 1.000000000000D+00 1.937000000000D+03 0.000000000000D+00
    2.000000000000D+00 0.000000000000D+00-1.210719347000D-08 3.900000000000D+01
    3.672000000000D+05 0.000000000000D+00
23 17 02 23 08 00  0.0-2.060495316982D-04-9.094947017729D-13 0.000000000000D+00
    9.500000000000D+01-2.593750000000D+00 5.182001565451D-09-2.103404539951D+00
   -3.296881914139D-07 1.127430680208D-02 5.159527063370D-06 5.153783115387D+03
    3.744000000000D+05 6.146728992462D-08 1.318289060602D+00-1.098960638046D-07
    9.443933053147D-01 2.695312500000D+02-2.498761847666D+00-8.219985252523D-09
   -3.857303529318D-11 1.000000000000D+00 1.937000000000D+03 0.000000000000D+00
    2.000000000000D+00 0.000000000000D+00-2.002343535423D-08 9.500000000000D+01
    3.672000000000D+05 0.000000000000D+00
